#dP2022 11 30 12  0  0.00000000      96 __u+U ITR00 EXT  IAC
## 2238 302400.00000000   900.00000000 59913 0.5000000000000
+  118   C06C07C08C09C10C11C12C13C14C16C19C20C21C22C23C24C25
+        C26C27C28C29C30C32C33C34C35C36C37C38C39C40C41C42C43
+        C44C45C46E01E02E03E04E05E07E08E09E10E11E12E13E14E15
+        E18E19E21E24E25E26E27E30E31E33E34E36G01G02G03G04G05
+        G06G07G08G09G10G11G12G13G14G15G16G17G18G19G20G21G22
+        G23G24G25G26G27G29G30G31G32J02J03J04R01R02R03R04R05
+        R07R08R09R11R12R13R14R15R17R18R19R20R21R22R24R25  0
++         8  8 13  8  9  8  9 13 10 10  7  8  9  8  9  9  9
++         8  8  7  8  8 10  8  8 10  9  9 11 11 10  9  9  9
++        10 10  8  8  8  8  8  8  8  7  7  7  9  7  8  7  7
++        10  8  7  7  8  8  8  7  8  7  8  9  7  7  7  8  7
++         8  8  8  8  7  7  7  9  7  8  8  8  7  8  7  7  8
++         7  8 10  8  7  7  7  7  8 10  7 11 10  9  8  9  7
++         8  8  9  9  7  9  8  8  7  8  8  8  9  7  7  8  0
%c M  cc GPS ccc cccc cccc cccc cccc ccccc ccccc ccccc ccccc
%c cc cc ccc ccc cccc cccc cccc cccc ccccc ccccc ccccc ccccc
%f  0.0000000  0.000000000  0.00000000000  0.000000000000000
%f  0.0000000  0.000000000  0.00000000000  0.000000000000000
%i    0    0    0    0      0      0      0      0         0
%i    0    0    0    0      0      0      0      0         0
/* IAC                                ULTRA-RAPID PREDICTION
/* S/V CLOCKS ARE ALIGNED TO GNSS TIME                      
/* G:C1WC2W R:C1PC2P E:C1XC5X C:C2IC6I J:C1CC2S             
/* PCV:IGS14_2233 OL/AL:FES2004  NONE     YN ORB:CoN CLK:CoN
*  2022 11 30 21 15  0.00000000
PC06 -17267.221467  31202.296225 -22690.206473    226.416640
PC07  -4861.783426  39240.201754 -14404.583831    139.985335
PC08  -3639.726576  20917.079996  36451.690903    518.278010
PC09 -10804.503998  29723.898505 -27750.860144   -793.962644
PC10   1403.306029  41088.850012  -7828.041011     59.488250
PC11 -23135.836152  14224.741101  -6270.629095   -262.070737
PC12 -19264.141093   -866.676177 -20119.940715    324.959074
PC13   4834.739538  24736.055331  34014.352005    146.720993
PC14 -13500.619111   9984.047482  22292.724426    223.433401
PC16 -22440.487408  30698.431607 -18341.752837    109.104564
PC19   8454.299445 -19429.445116 -18146.577872   -908.166536
PC20  15824.138000  -1050.856558 -22954.466574    820.986937
PC21 -14160.553179 -19390.672220  14240.959337   -934.484453
PC22  -4087.650881 -27487.837229  -2646.350860   -764.842647
PC23   4428.210403  17531.360643 -21257.555950   -873.727045
PC24 -26772.794157  -3330.405148  -7082.171584   -735.941308
PC25 -14765.820492  11223.410142 -20853.954458     32.612827
PC26 -22827.418592 -13388.422153   8779.003159    -43.383310
PC27  13595.263209   8963.874583  22645.692032     59.357463
PC28  -3018.187516  20236.310730  18982.696930     42.030780
PC29  18400.600606 -20721.831815  -3287.205353     47.609581
PC30  22654.855310  -7899.095298  14233.712442      1.120853
PC32  14274.345030  19357.767979 -14141.804521   -698.753311
PC33  -8442.213118  19375.844986  18216.912601   -901.658377
PC34 -22879.824753   8903.981339 -13290.945051     51.000628
PC35   3784.506434 -20961.511487 -18017.049194    112.320789
PC36  15656.995251 -10487.581909  20604.787882   -801.434568
PC37  21675.145042  14505.251750  -9957.800839   -899.432939
PC38 -12307.867851  19758.142253  35174.023629     41.807849
PC39 -24072.638290  31640.326680 -14343.448642     -0.963271
PC40  -9903.245141  36267.712730 -18897.094790     -9.205723
PC41   3764.633914  27466.019625   3264.482420   -331.396719
PC42 -16123.157881   -361.238578  22812.545997   -763.745369
PC43 -18898.387872  20392.332121   2518.372643     27.755194
PC44 -13881.375094  -8723.078859 -22592.317178    130.607750
PC45  -4844.577838 -17459.495626  21212.790290    -28.980004
PC46  26446.805876   2094.150908   8725.814204    -16.515272
PE01   -967.938175  20768.225080 -21071.867570   -573.371361
PE02    748.559312 -20889.642298  20947.537381      5.800880
PE03   8385.780428 -28349.875981   1520.184223   -625.238520
PE04   5646.590441  22866.444964 -17933.367343     -4.241600
PE05  17801.242299 -17271.662339 -16156.850297   -119.521392
PE07 -16704.311439  -3693.241856  24152.648139     -3.523962
PE08      0.000000      0.000000      0.000000   -641.071156
PE09  16513.951635   3835.454423 -24269.752022   -747.817396
PE10  20800.179223   8371.547569  19328.881463   -494.556393
PE11  27432.257896   1654.567846  10984.114511   1078.425393
PE12  11489.845883  13378.987094  23774.174191   -306.218484
PE13 -27047.656821  -2172.022042 -11818.233552    430.494703
PE14 -11860.840438 -19168.223363 -22938.599163     71.624955
PE15 -11190.965114 -13394.931484 -23895.507342    703.973843
PE18  14295.986078   6260.827883  18664.417438   -681.742954
PE19 -10170.940532  27783.774580   1034.888912  -3860.906882
PE21 -16082.608565   6507.867118 -23980.662337   -497.697138
PE24  23174.737703  13432.909947  12617.338114   -976.517969
PE25  16304.790418  -6194.939490  23923.322560   -593.894879
PE26 -26478.001954  10646.743879   7848.790650  -1894.856099
PE27 -23200.993236 -12533.726778 -13425.670455   -452.216295
PE30 -15998.477878 -24246.541779   5621.253352  -1041.092788
PE31  16605.558782  24011.364220  -4915.345625   -509.500004
PE33 -11159.574877  16640.618445  21796.880804   -455.654371
PE34  10959.554659 -16675.429724 -21868.055281    -17.291269
PE36  26882.435591 -10191.017647  -7038.228517   -468.618734
PG01  -7645.537866 -13623.021802 -21843.806052    244.138277
PG02  10787.115433  12747.229559  21243.782026   -635.349242
PG03 -11252.151637 -23044.591526  -7249.428310   -374.785156
PG04  -2423.678686 -21095.441628  15891.316076    -77.001206
PG05    510.761348  19738.139656  17534.303335   -106.321309
PG06 -25398.799161   6228.267729   4943.596181    530.417788
PG07 -21621.826797  -7646.441549  14227.510238    280.688997
PG08   5079.238685 -25069.728940  -6423.563334    -96.384290
PG09 -11433.311631 -11427.862629  20986.627692   -260.661934
PG10  18990.992869   5068.037648 -17852.371024    -14.124025
PG11 -17895.105978  12029.691059  15491.112821    -48.566556
PG12   8873.439216  23850.689983  -8063.457919   -310.502841
PG13 -13038.599575  23012.112517   -832.192786    433.976018
PG14 -19529.253696  -7303.340790 -16512.908756    -75.418659
PG15  -1589.164632  25547.268684  -6960.164458     -7.968888
PG16   5710.708224 -16430.087739  19646.567395   -526.652254
PG17 -16584.190892   2746.657711 -20143.201109    682.261111
PG18  22935.577096   5933.110972  12155.494785    -41.678241
PG19 -18271.516433  13021.775972 -14236.528781    244.411208
PG20 -10270.669244  11676.760660  21554.481878    466.586245
PG21   1383.232019 -15267.062444 -20994.118908    154.900478
PG22  17372.298045 -16229.151128 -11236.562075    375.345419
PG23  20118.232554  14481.976924  -9733.431926     -0.564710
PG24   3753.886376  15514.992134 -21571.553463     36.264787
PG25  16889.646268  20648.933545   1098.305228    397.714148
PG26  14292.412525  -7231.430533  21119.051513    237.270956
PG27  12697.056548 -22638.335017   4270.902772    165.215469
PG29   8611.999623  13916.573641  20858.868906   -570.868605
PG30 -26504.755369    513.868098   3269.855692   -536.094318
PG31  25188.666883  -6790.945363   5991.375883   -201.851947
PG32  17104.674803  -6239.391744 -19114.945807   -313.941636
PJ02 -21556.108843  19755.616535 -25759.606570     -0.224277
PJ03 -29322.454588  29893.123062  10629.998537     -5.686109
PJ04 -26887.257090  27139.200143  23853.130310    114.061377
PR01   1571.771051 -24737.787615  -6037.738393     18.770680
PR02  -6451.756231 -21080.801150  12805.234921    -23.400400
PR03 -10833.351755  -4968.781829  22582.946328     68.231519
PR04  -8923.293166  13459.124534  19774.516489    166.869303
PR05  -2369.410642  24662.647984   6140.896257    103.788692
PR07  10843.031892   4260.717737 -22665.266590     45.267229
PR08   8890.334749 -13622.706534 -19583.610682    -68.346813
PR09  17697.900884  14901.798962 -10643.240671     90.497819
PR11  16098.898920  -2138.657409  19674.237581     17.823291
PR12  -1534.061490 -12761.620767  22052.020352     23.279194
PR13 -16572.203257 -15117.107660  12123.529218    -29.465715
PR14 -23121.781178  -8543.862867  -6579.255069     24.078179
PR15 -15395.798790   2742.253010 -20134.740585     92.642632
PR17 -19636.080094   3509.967686 -15857.039182    582.838616
PR18 -21989.321107  12973.618922   -279.746757     54.574146
PR19 -14337.215415  15376.990199  14445.402995   -212.894649
PR20   5170.558141   8967.945537  23327.136814    -83.119286
PR21  20413.613746  -4569.341139  14625.502377   -353.873734
PR22  22277.150261 -12405.969655   -427.719847     19.689298
PR24  -6318.041269  -8816.401408 -23063.234483    129.828074
PR25  19709.602055  -2086.490397  16080.903586     47.698751
EOF
